[{"OBJECT_NAME":"MUSAT-3ALPHA","OBJECT_ID":"2025-135AX","EPOCH":"2026-03-09T21:45:39.051072","MEAN_MOTION":14.93579267,"ECCENTRICITY":0.00013641,"INCLINATION":97.7508,"RA_OF_ASC_NODE":184.2364,"ARG_OF_PERICENTER":294.2353,"MEAN_ANOMALY":65.8724,"EPHEMERIS_TYPE":0,"CLASSIFICATION_TYPE":"U","NORAD_CAT_ID":64573,"ELEMENT_SET_NO":999,"REV_AT_EPOCH":3906,"BSTAR":0.00023787476,"MEAN_MOTION_DOT":2.452e-5,"MEAN_MOTION_DDOT":0},{"OBJECT_NAME":"BIFROST-DNK","OBJECT_ID":"2025-135BN","EPOCH":"2026-03-09T21:47:05.760384","MEAN_MOTION":14.94084434,"ECCENTRICITY":0.000349,"INCLINATION":97.761,"RA_OF_ASC_NODE":184.6338,"ARG_OF_PERICENTER":330.8145,"MEAN_ANOMALY":29.288,"EPHEMERIS_TYPE":0,"CLASSIFICATION_TYPE":"U","NORAD_CAT_ID":64588,"ELEMENT_SET_NO":999,"REV_AT_EPOCH":3908,"BSTAR":0.00037926768,"MEAN_MOTION_DOT":3.996e-5,"MEAN_MOTION_DDOT":0}]
